H1 CPF  1  DGF 2022 11 01 14  8051 larets     NONE      
H2   304206 5557    27944 2022 10 25 00 00 00 2022 11 01 00 00 00    30 1 1  0 0 0
H5  0.0650
H9
10 0 59883  28800.000000  0      -1069069.144       1383630.913       6836388.007
10 0 59883  28830.000000  0      -1070827.563       1605836.456       6787191.465
10 0 59883  28860.000000  0      -1070534.410       1826421.180       6731080.358
10 0 59883  28890.000000  0      -1068197.410       2045152.750       6668110.752
10 0 59883  28920.000000  0      -1063827.365       2261800.659       6598345.669
10 0 59883  28950.000000  0      -1057438.126       2476136.473       6521855.037
10 0 59883  28980.000000  0      -1049046.581       2687934.072       6438715.628
10 0 59883  29010.000000  0      -1038672.625       2896969.897       6349010.986
10 0 59883  29040.000000  0      -1026339.128       3103023.183       6252831.347
10 0 59883  29070.000000  0      -1012071.906       3305876.203       6150273.558
10 0 59883  29100.000000  0       -995899.678       3505314.491       6041440.984
10 0 59883  29130.000000  0       -977854.024       3701127.081       5926443.410
10 0 59883  29160.000000  0       -957969.341       3893106.728       5805396.944
10 0 59883  29190.000000  0       -936282.790       4081050.138       5678423.903
10 0 59883  29220.000000  0       -912834.243       4264758.190       5545652.699
10 0 59883  29250.000000  0       -887666.232       4444036.151       5407217.719
10 0 59883  29280.000000  0       -860823.882       4618693.898       5263259.194
10 0 59883  29310.000000  0       -832354.851       4788546.123       5113923.061
10 0 59883  29340.000000  0       -802309.261       4953412.548       4959360.824
10 0 59883  29370.000000  0       -770739.623       5113118.119       4799729.397
10 0 59883  29400.000000  0       -737700.762       5267493.205       4635190.948
10 0 59883  29430.000000  0       -703249.737       5416373.779       4465912.734
10 0 59883  29460.000000  0       -667445.759       5559601.598       4292066.944
10 0 59883  29490.000000  0       -630350.107       5697024.382       4113830.525
10 0 59883  29520.000000  0       -592026.044       5828495.984       3931385.017
10 0 59883  29550.000000  0       -552538.722       5953876.566       3744916.371
10 0 59883  29580.000000  0       -511955.097       6073032.763       3554614.759
10 0 59883  29610.000000  0       -470343.832       6185837.844       3360674.384
10 0 59883  29640.000000  0       -427775.193       6292171.863       3163293.270
10 0 59883  29670.000000  0       -384320.952       6391921.796       2962673.048
10 0 59883  29700.000000  0       -340054.279       6484981.667       2759018.749
10 0 59883  29730.000000  0       -295049.633       6571252.663       2552538.586
10 0 59883  29760.000000  0       -249382.653       6650643.248       2343443.747
10 0 59883  29790.000000  0       -203130.051       6723069.273       2131948.170
10 0 59883  29820.000000  0       -156369.496       6788454.073       1918268.324
10 0 59883  29850.000000  0       -109179.505       6846728.557       1702622.973
10 0 59883  29880.000000  0        -61639.323       6897831.283       1485232.953
10 0 59883  29910.000000  0        -13828.812       6941708.534       1266320.933
10 0 59883  29940.000000  0         34171.671       6978314.378       1046111.183
10 0 59883  29970.000000  0         82281.386       7007610.720        824829.341
10 0 59883  30000.000000  0        130419.335       7029567.352        602702.165
10 0 59883  30030.000000  0        178504.379       7044161.986        379957.301
10 0 59883  30060.000000  0        226455.358       7051380.278        156823.029
10 0 59883  30090.000000  0        274191.214       7051215.846        -66471.976
10 0 59883  30120.000000  0        321631.110       7043670.268       -289698.889
10 0 59883  30150.000000  0        368694.543       7028753.080       -512628.982
10 0 59883  30180.000000  0        415301.470       7006481.760       -735033.861
10 0 59883  30210.000000  0        461372.417       6976881.705       -956685.715
10 0 59883  30240.000000  0        506828.601       6939986.199      -1177357.553
10 0 59883  30270.000000  0        551592.041       6895836.368      -1396823.443
10 0 59883  30300.000000  0        595585.675       6844481.133      -1614858.757
10 0 59883  30330.000000  0        638733.469       6785977.147      -1831240.403
10 0 59883  30360.000000  0        680960.533       6720388.729      -2045747.059
10 0 59883  30390.000000  0        722193.231       6647787.782      -2258159.411
10 0 59883  30420.000000  0        762359.284       6568253.709      -2468260.377
10 0 59883  30450.000000  0        801387.886       6481873.318      -2675835.339
10 0 59883  30480.000000  0        839209.798       6388740.715      -2880672.364
10 0 59883  30510.000000  0        875757.459       6288957.197      -3082562.426
10 0 59883  30540.000000  0        910965.080       6182631.128      -3281299.623
10 0 59883  30570.000000  0        944768.743       6069877.810      -3476681.389
10 0 59883  30600.000000  0        977106.497       5950819.349      -3668508.703
10 0 59883  30630.000000  0       1007918.446       5825584.509      -3856586.292
10 0 59883  30660.000000  0       1037146.843       5694308.561      -4040722.833
10 0 59883  30690.000000  0       1064736.169       5557133.130      -4220731.142
10 0 59883  30720.000000  0       1090633.222       5414206.022      -4396428.366
10 0 59883  30750.000000  0       1114787.193       5265681.060      -4567636.166
10 0 59883  30780.000000  0       1137149.742       5111717.903      -4734180.893
10 0 59883  30810.000000  0       1157675.072       4952481.862      -4895893.761
10 0 59883  30840.000000  0       1176319.997       4788143.717      -5052611.012
10 0 59883  30870.000000  0       1193044.007       4618879.518      -5204174.073
10 0 59883  30900.000000  0       1207809.329       4444870.393      -5350429.716
10 0 59883  30930.000000  0       1220580.983       4266302.342      -5491230.203
10 0 59883  30960.000000  0       1231326.838       4083366.032      -5626433.432
10 0 59883  30990.000000  0       1240017.662       3896256.581      -5755903.076
10 0 59883  31020.000000  0       1246627.166       3705173.345      -5879508.706
10 0 59883  31050.000000  0       1251132.047       3510319.692      -5997125.922
10 0 59883  31080.000000  0       1253512.029       3311902.783      -6108636.460
10 0 59883  31110.000000  0       1253749.891       3110133.344      -6213928.306
10 0 59883  31140.000000  0       1251831.500       2905225.437      -6312895.796
10 0 59883  31170.000000  0       1247745.837       2697396.232      -6405439.712
10 0 59883  31200.000000  0       1241485.018       2486865.773      -6491467.374
10 0 59883  31230.000000  0       1233044.312       2273856.746      -6570892.718
10 0 59883  31260.000000  0       1222422.157       2058594.243      -6643636.383
10 0 59883  31290.000000  0       1209620.168       1841305.524      -6709625.780
10 0 59883  31320.000000  0       1194643.144       1622219.773      -6768795.159
10 0 59883  31350.000000  0       1177499.067       1401567.856      -6821085.666
10 0 59883  31380.000000  0       1158199.100       1179582.077      -6866445.392
10 0 59883  31410.000000  0       1136757.583        956495.941      -6904829.415
10 0 59883  31440.000000  0       1113192.020        732543.905      -6936199.844
10 0 59883  31470.000000  0       1087523.066        507961.138      -6960525.850
10 0 59883  31500.000000  0       1059774.509        282983.271      -6977783.687
10 0 59883  31530.000000  0       1029973.243         57846.153      -6987956.716
10 0 59883  31560.000000  0        998149.243       -167214.392      -6991035.412
10 0 59883  31590.000000  0        964335.531       -391962.807      -6987017.364
10 0 59883  31620.000000  0        928568.147       -616164.043      -6975907.279
10 0 59883  31650.000000  0        890886.105       -839583.803      -6957716.973
10 0 59883  31680.000000  0        851331.354      -1061988.777      -6932465.355
10 0 59883  31710.000000  0        809948.732      -1283146.884      -6900178.411
10 0 59883  31740.000000  0        766785.918      -1502827.504      -6860889.169
10 0 59883  31770.000000  0        721893.374      -1720801.717      -6814637.677
10 0 59883  31800.000000  0        675324.295      -1936842.529      -6761470.964
10 0 59883  31830.000000  0        627134.545      -2150725.113      -6701443.002
10 0 59883  31860.000000  0        577382.595      -2362227.043      -6634614.652
10 0 59883  31890.000000  0        526129.447      -2571128.521      -6561053.611
10 0 59883  31920.000000  0        473438.567      -2777212.610      -6480834.345
10 0 59883  31950.000000  0        419375.807      -2980265.458      -6394038.012
10 0 59883  31980.000000  0        364009.327      -3180076.514      -6300752.387
10 0 59883  32010.000000  0        307409.514      -3376438.748      -6201071.778
10 0 59883  32040.000000  0        249648.899      -3569148.862      -6095096.933
10 0 59883  32070.000000  0        190802.068      -3758007.500      -5982934.951
10 0 59883  32100.000000  0        130945.573      -3942819.459      -5864699.178
10 0 59883  32130.000000  0         70157.840      -4123393.887      -5740509.099
10 0 59883  32160.000000  0          8519.066      -4299544.488      -5610490.227
10 0 59883  32190.000000  0        -53888.873      -4471089.714      -5474773.982
10 0 59883  32220.000000  0       -116982.530      -4637852.957      -5333497.565
10 0 59883  32250.000000  0       -180676.989      -4799662.735      -5186803.828
10 0 59883  32280.000000  0       -244885.974      -4956352.872      -5034841.133
10 0 59883  32310.000000  0       -309521.959      -5107762.678      -4877763.215
10 0 59883  32340.000000  0       -374496.276      -5253737.116      -4715729.025
10 0 59883  32370.000000  0       -439719.238      -5394126.970      -4548902.578
99
